STARLINK-31938          
1 59865U 24098H   26068.58644927  .00005385  00000+0  20509-3 0  9992
2 59865  43.0016 278.2884 0002368 258.0482 102.0104 15.27575057101831
TRANSPORTER-12 OBJECT AZ
1 62656U 25009AZ  26068.71026235  .00016057  00000+0  54903-3 0  9991
2 62656  97.3981 151.9913 0000987  45.3581 314.7740 15.30349724 63792
